IRIDIUM 116             
1 43072U 17083C   24366.25327644 -.00000031  00000+0 -17970-4 0  9992
2 43072  86.3992 184.7366 0001943  97.2528 262.8888 14.34217365367789
IRIDIUM 130             
1 43073U 17083D   24365.80295104  .00000025  00000+0  19017-5 0  9994
2 43073  86.3996 185.1477 0001795  94.1333 266.0068 14.34218082367667
IRIDIUM 151             
1 43074U 17083E   24366.05665018  .00000036  00000+0  57256-5 0  9997
2 43074  86.3990 184.8644 0002122  92.1890 267.9549 14.34217160367722
IRIDIUM 134             
1 43075U 17083F   24365.74586682 -.00000012  00000+0 -11393-4 0  9999
2 43075  86.3995 184.9949 0001829  94.7882 265.3523 14.34217322367644
IRIDIUM 137             
1 43076U 17083G   24365.75855423  .00000015  00000+0 -17932-5 0  9991
2 43076  86.3998 185.0713 0002307 100.4194 259.7262 14.34217708367715
IRIDIUM 141             
1 43077U 17083H   24365.75221102  .00000023  00000+0  12045-5 0  9991
2 43077  86.3987 184.9352 0001852  81.7677 278.3729 14.34217769367714
IRIDIUM 153             
1 43078U 17083J   24365.77415313  .00000420  00000+0  14308-3 0  9996
2 43078  86.3999 153.4527 0001840  74.9123 285.2277 14.34215801368823
IRIDIUM 131             
1 43079U 17083K   24366.22790163 -.00000113  00000+0 -47572-4 0  9998
2 43079  86.3999 184.8869 0001958  86.7710 273.3710 14.34216527367717
